NORAD_CAT_ID,OBJECT_NAME,OBJECT_TYPE,EPOCH,MEAN_MOTION,ECCENTRICITY,INCLINATION,RA_OF_ASC_NODE,ARG_OF_PERICENTER,MEAN_ANOMALY,BSTAR,MEAN_MOTION_DOT,MEAN_MOTION_DDOT,TLE_LINE0,TLE_LINE1,TLE_LINE2,SEMIMAJOR_AXIS,PERIOD,APOGEE,PERIGEE,DECAYED
53846.0,STARLINK-4746,PAYLOAD,2022-09-23 16:00:00,15.88258258,0.0032443,53.2174,236.2142,55.8144,37.2937,-0.0042013999999999,-0.01234319,0.00043284,0 STARLINK-4746,1 53846U 22114AE  22266.66667824 -.01234319  43284-3 -42014-2 0  9991,2 53846  53.2174 236.2142 0032443  55.8144  37.2937 15.88258258  1300,6685.303000000001,90.665,328.857,285.4790000000001,0.0
53846.0,STARLINK-4746,PAYLOAD,2022-09-24 06:00:00,15.86739436,0.0025762,53.2172,233.2675,57.2182,131.6923,-0.0046736,-0.01250931,0.00043736,0 STARLINK-4746,1 53846U 22114AE  22267.25001157 -.01250931  43736-3 -46736-2 0  9993,2 53846  53.2172 233.2675 0025762  57.2182 131.6923 15.86739436  1393,6689.568,90.752,328.667,294.2,0.0
53846.0,STARLINK-4746,PAYLOAD,2022-09-24 14:00:01,15.85927058,0.0022451999999999,53.2169,231.5842,56.8595,236.826,-0.0052669,-0.01344318,0.00049501,0 STARLINK-4746,1 53846U 22114AE  22267.58335648 -.01344318  49501-3 -52669-2 0  9995,2 53846  53.2169 231.5842 0022452  56.8595 236.8260 15.85927058  1448,6691.853,90.799,328.742,298.693,0.0
53846.0,STARLINK-4746,PAYLOAD,2022-09-24 22:00:00,15.85047279,0.0018942999999999,53.2176,229.9039,54.984,342.3295,-0.0053895,-0.01160955,0.0,0 STARLINK-4746,1 53846U 22114AE  22267.91667824 -.01160955  00000-0 -53895-2 0  9999,2 53846  53.2176 229.9039 0018943  54.9840 342.3295 15.85047279  1301,6694.329000000002,90.849,328.875,303.513,0.0
53846.0,STARLINK-4746,PAYLOAD,2022-09-25 14:00:01,15.83345074,0.0011981,53.2174,226.5515,49.0286,192.5291,-0.0062185,-0.01234641,0.0,0 STARLINK-4746,1 53846U 22114AE  22268.58334491 -.01234641  00000-0 -62185-2 0  9990,2 53846  53.2174 226.5515 0011981  49.0286 192.5291 15.83345074  1308,6699.126,90.947,329.017,312.964,0.0
53846.0,STARLINK-4746,PAYLOAD,2022-09-25 22:00:01,15.82462501,0.0008302999999999,53.2175,224.8774,46.5453,295.6471,-0.0063542,-0.01207473,0.0,0 STARLINK-4746,1 53846U 22114AE  22268.91668981 -.01207473  00000-0 -63542-2 0  9992,2 53846  53.2175 224.8774 0008303  46.5453 295.6471 15.82462501  1308,6701.616,90.997,329.046,317.9170000000001,0.0
53846.0,STARLINK-4746,PAYLOAD,2022-09-26 10:00:00,15.81171554,0.0003698,53.2171,222.3733,31.3466,279.6641,-0.0068708,-0.01221894,0.0,0 STARLINK-4746,1 53846U 22114AE  22269.41667824 -.01221894  00000-0 -68708-2 0  9995,2 53846  53.2171 222.3733 0003698  31.3466 279.6641 15.81171554  1732,6705.263000000001,91.072,329.608,324.649,0.0
53846.0,STARLINK-4746,PAYLOAD,2022-09-26 14:00:01,15.8072494,0.0003275,53.2174,221.5378,27.4423,152.6821,-0.0068807,-0.01200702,0.0,0 STARLINK-4746,1 53846U 22114AE  22269.58334491 -.01200702  00000-0 -68807-2 0  9999,2 53846  53.2174 221.5378 0003275  27.4423 152.6821 15.80724940  1306,6706.526,91.097,330.588,326.195,0.0
53846.0,STARLINK-4746,PAYLOAD,2022-09-26 22:00:00,15.79871616,0.0003103,53.2177,219.8705,305.9432,331.6106,-0.0073216999999999,-0.01224869,0.0,0 STARLINK-4746,1 53846U 22114AE  22269.91667824 -.01224869  00000-0 -73217-2 0  9996,2 53846  53.2177 219.8705 0003103 305.9432 331.6106 15.79871616  1303,6708.941,91.147,332.8880000000001,328.724,0.0
53846.0,STARLINK-4746,PAYLOAD,2022-09-27 06:00:00,15.79056151,0.0005205,53.2176,218.2073,278.3329,95.582,-0.0080185,-0.01285731,0.0,0 STARLINK-4746,1 53846U 22114AE  22270.25001157 -.01285731  00000-0 -80185-2 0  9993,2 53846  53.2176 218.2073 0005205 278.3329  95.5820 15.79056151  1865,6711.251,91.194,336.6090000000001,329.622,0.0
53846.0,STARLINK-4746,PAYLOAD,2022-09-27 14:00:01,15.78216414,0.0006667,53.2173,216.5432,272.223,197.0265,-0.0085849999999999,-0.01346031,0.0,0 STARLINK-4746,1 53846U 22114AE  22270.58334491 -.01346031  00000-0 -85850-2 0  9994,2 53846  53.2173 216.5432 0006667 272.2230 197.0265 15.78216414  1308,6713.630999999999,91.242,339.972,331.02,0.0
53846.0,STARLINK-4746,PAYLOAD,2022-09-27 22:00:01,15.77335034,0.0004282,53.2171,214.8818,270.0726,293.5523,-0.0087768999999999,-0.01322701,0.0,0 STARLINK-4746,1 53846U 22114AE  22270.91668981 -.01322701  00000-0 -87769-2 0  9994,2 53846  53.2171 214.8818 0004282 270.0726 293.5523 15.77335034  1973,6716.132,91.293,340.8730000000001,335.121,0.0
53846.0,STARLINK-4746,PAYLOAD,2022-09-28 14:00:01,15.75574075,7.97e-05,53.2175,211.568,47.0426,342.015,-0.0092797,-0.01293772,0.0,0 STARLINK-4746,1 53846U 22114AE  22271.58334491 -.01293772  00000-0 -92797-2 0  9996,2 53846  53.2175 211.5680 0000797  47.0426 342.0150 15.75574075  1305,6721.135,91.395,343.536,342.464,0.0
53846.0,STARLINK-4746,PAYLOAD,2022-09-28 22:00:00,15.74680064,0.000121,53.2173,209.9133,61.4545,58.7905,-0.0093528999999999,-0.01257869,0.0,0 STARLINK-4746,1 53846U 22114AE  22271.91667824 -.01257869  00000-0 -93529-2 0  9993,2 53846  53.2173 209.9133 0001210  61.4545  58.7905 15.74680064  1304,6723.679,91.447,346.357,344.73,0.0
53846.0,STARLINK-4746,PAYLOAD,2022-09-29 06:00:00,15.73639559,0.0001269,53.2176,208.2635,57.2256,153.1844,-0.0040823,-0.00548002,0.0,0 STARLINK-4746,1 53846U 22114AE  22272.25001157 -.00548002  00000-0 -40823-2 0  9992,2 53846  53.2176 208.2635 0001269  57.2256 153.1844 15.73639559  2183,6726.642,91.508,349.361,347.654,0.0
53846.0,STARLINK-4746,PAYLOAD,2022-09-29 14:00:01,15.7320453,0.0001171999999999,53.2175,206.6118,70.1858,229.4422,-8.198e-06,-1.77e-05,0.0,0 STARLINK-4746,1 53846U 22114AE  22272.58334491 -.00001770  00000-0 -81980-5 0  9996,2 53846  53.2175 206.6118 0001172  70.1858 229.4422 15.73204530  1304,6727.882,91.533,350.536,348.959,0.0
53846.0,STARLINK-4746,PAYLOAD,2022-09-29 22:00:00,15.73275768,0.0001048,53.2158,204.9606,89.2932,299.3092,-0.00053143,-0.00074782,0.0,0 STARLINK-4746,1 53846U 22114AE  22272.91667824 -.00074782  00000-0 -53143-3 0  9993,2 53846  53.2158 204.9606 0001048  89.2932 299.3092 15.73275768  1304,6727.679,91.529,350.249,348.839,0.0
53846.0,STARLINK-4746,PAYLOAD,2022-09-30 06:00:02,15.73191167,0.0001084,53.2157,203.3127,77.6417,40.0275,0.00014886,0.00020314,0.0,0 STARLINK-4746,1 53846U 22114AE  22273.25002315  .00020314  00000-0  14886-3 0  9990,2 53846  53.2157 203.3127 0001084  77.6417  40.0275 15.73191167  2342,6727.92,91.534,350.515,349.056,0.0
53846.0,STARLINK-4746,PAYLOAD,2022-09-30 14:00:01,15.7318437,0.0001236,53.216,201.6612,88.3177,118.2145,-8.3173e-05,-0.00012267,0.0,0 STARLINK-4746,1 53846U 22114AE  22273.58334491 -.00012267  00000-0 -83173-4 0  9995,2 53846  53.2160 201.6612 0001236  88.3177 118.2145 15.73184370  1304,6727.94,91.534,350.636,348.973,0.0
53846.0,STARLINK-4746,PAYLOAD,2022-09-30 16:00:00,15.73141155,0.0001293,53.2157,201.2485,91.805,226.9679,0.00056277,0.00078906,0.0,0 STARLINK-4746,1 53846U 22114AE  22273.66667824  .00078906  00000-0  56277-3 0  9997,2 53846  53.2157 201.2485 0001293  91.8050 226.9679 15.73141155  2401,6728.063,91.537,350.798,349.05800000000005,0.0
53846.0,STARLINK-4746,PAYLOAD,2022-09-30 22:00:00,15.73220524,0.000133,53.2159,200.0121,91.6202,203.8204,0.0001514,0.00020699,0.0,0 STARLINK-4746,1 53846U 22114AE  22273.91667824  .00020699  00000-0  15140-3 0  9995,2 53846  53.2159 200.0121 0001330  91.6202 203.8204 15.73220524  1300,6727.837,91.532,350.596,348.807,0.0
53846.0,STARLINK-4746,PAYLOAD,2022-10-01 14:00:01,15.73213542,0.0001129,53.2151,196.7126,97.2264,16.1497,-7.709999999999999e-05,-0.00011431,0.0,0 STARLINK-4746,1 53846U 22114AE  22274.58334491 -.00011431  00000-0 -77100-4 0  9991,2 53846  53.2151 196.7126 0001129  97.2264  16.1497 15.73213542  2553,6727.857,91.532,350.481,348.962,0.0
53846.0,STARLINK-4746,PAYLOAD,2022-10-01 22:00:00,15.73213049,0.0001084,53.2153,195.0637,99.7506,102.5516,-0.00058611,-0.00082121,0.0,0 STARLINK-4746,1 53846U 22114AE  22274.91667824 -.00082121  00000-0 -58611-3 0  9996,2 53846  53.2153 195.0637 0001084  99.7506 102.5516 15.73213049  1306,6727.858,91.532,350.452,348.994,0.0
53846.0,STARLINK-4746,PAYLOAD,2022-10-02 06:00:00,15.73140625,9.15e-05,53.2151,193.4156,87.2057,204.019,1.441e-05,1.399e-05,0.0,0 STARLINK-4746,1 53846U 22114AE  22275.25001157  .00001399  00000-0  14410-4 0  9991,2 53846  53.2151 193.4156 0000915  87.2057 204.0190 15.73140625  2651,6728.064,91.537,350.545,349.314,0.0
53846.0,STARLINK-4746,PAYLOAD,2022-10-02 14:00:01,15.7310699,0.0001025,53.2155,191.7641,103.5024,276.5859,0.00081376,0.00114697,0.0,0 STARLINK-4746,1 53846U 22114AE  22275.58334491  .00114697  00000-0  81376-3 0  9997,2 53846  53.2155 191.7641 0001025 103.5024 276.5859 15.73106990  1308,6728.16,91.539,350.715,349.336,0.0
53846.0,STARLINK-4746,PAYLOAD,2022-10-02 22:00:00,15.73202293,0.0001082999999999,53.2155,190.1154,100.0909,8.8537,0.00037906,0.00052919,0.0,0 STARLINK-4746,1 53846U 22114AE  22275.91667824  .00052919  00000-0  37906-3 0  9991,2 53846  53.2155 190.1154 0001083 100.0909   8.8537 15.73202293  2761,6727.889,91.533,350.482,349.025,0.0
53846.0,STARLINK-4746,PAYLOAD,2022-10-03 14:00:01,15.73273568,0.000108,53.2151,186.8153,109.45,177.4836,-0.00017445,-0.00025106,0.0,0 STARLINK-4746,1 53846U 22114AE  22276.58334491 -.00025106  00000-0 -17445-3 0  9992,2 53846  53.2151 186.8153 0001080 109.4500 177.4836 15.73273568  1302,6727.685,91.529,350.277,348.824,0.0
53846.0,STARLINK-4746,PAYLOAD,2022-10-03 22:00:00,15.73277823,0.0001054999999999,53.2154,185.1667,105.4605,270.4459,-0.00046521,-0.00065617,0.0,0 STARLINK-4746,1 53846U 22114AE  22276.91667824 -.00065617  00000-0 -46521-3 0  9996,2 53846  53.2154 185.1667 0001055 105.4605 270.4459 15.73277823  1304,6727.6730000000025,91.529,350.24800000000016,348.829,0.0
53846.0,STARLINK-4746,PAYLOAD,2022-10-04 14:00:01,15.73165114,9.37e-05,53.2157,181.8662,116.9076,76.959,0.00016509,0.00022577,0.0,0 STARLINK-4746,1 53846U 22114AE  22277.58334491  .00022577  00000-0  16509-3 0  9990,2 53846  53.2157 181.8662 0000937 116.9076  76.9590 15.73165114  1306,6727.995,91.535,350.49,349.22900000000016,0.0
